OBJECT_NAME,OBJECT_ID,EPOCH,MEAN_MOTION,ECCENTRICITY,INCLINATION,RA_OF_ASC_NODE,ARG_OF_PERICENTER,MEAN_ANOMALY,EPHEMERIS_TYPE,CLASSIFICATION_TYPE,NORAD_CAT_ID,ELEMENT_SET_NO,REV_AT_EPOCH,BSTAR,MEAN_MOTION_DOT,MEAN_MOTION_DDOT
IRIDIUM 156,2018-061H,2026-06-26T02:49:18.956064,14.34218486,.0002005,86.3954,52.9949,85.3658,274.7767,0,U,43576,999,41465,.69735E-4,.215E-5,0
IRIDIUM 164,2018-061J,2026-06-26T04:02:22.477344,14.34218086,.0002227,86.3955,53.0142,90.3170,269.8281,0,U,43577,999,41470,.26452E-4,.94E-6,0
IRIDIUM 159,2018-061K,2026-06-26T03:16:42.481920,14.34217564,.0002109,86.3947,52.9638,83.7170,276.4266,0,U,43578,999,41466,-.7817E-6,.18E-6,0
IRIDIUM 180,2019-002A,2026-06-25T23:55:02.948160,14.34217299,.0002135,86.3971,349.9142,89.3109,270.8332,0,U,43922,999,39025,-.9655E-5,-.7E-7,0
IRIDIUM 176,2019-002B,2026-06-26T04:46:01.346016,14.72225345,.000243,86.6093,349.7717,88.5506,271.5989,0,U,43923,999,40057,.11568E-3,.754E-5,0
IRIDIUM 168,2019-002C,2026-06-25T23:45:54.460224,14.34216504,.000223,86.3975,349.9941,90.5645,269.5806,0,U,43924,999,39023,.21599E-4,.8E-6,0
IRIDIUM 173,2019-002D,2026-06-26T04:29:02.958720,14.34217784,.0002172,86.3972,349.8005,88.4137,271.7308,0,U,43925,999,39024,.10323E-4,.49E-6,0
IRIDIUM 169,2019-002E,2026-06-26T02:03:35.165952,14.38607186,.000169,86.4220,21.4722,81.8691,278.2698,0,U,43926,999,39150,.72913E-4,.243E-5,0
IRIDIUM 172,2019-002F,2026-06-26T04:19:54.799104,14.34216791,.0002135,86.3969,349.8111,89.4892,270.6549,0,U,43927,999,39025,-.74891E-5,-.1E-7,0
IRIDIUM 175,2019-002G,2026-06-25T19:14:15.101088,14.43617140,.0003606,86.4516,286.9198,156.1516,203.9853,0,U,43928,999,40022,.80753E-4,.294E-5,0
IRIDIUM 171,2019-002H,2026-06-25T22:51:06.903072,14.34217497,.0001974,86.3979,350.2137,93.6650,266.4772,0,U,43929,999,39021,-.7278E-5,-.1E-7,0
IRIDIUM 170,2019-002J,2026-06-26T00:01:17.500800,14.72225522,.000252,86.6093,349.8567,86.2163,273.9342,0,U,43930,999,40055,.11168E-3,.728E-5,0
IRIDIUM 167,2019-002K,2026-06-26T00:22:26.889600,14.34217447,.0001887,86.3969,349.9025,96.9247,263.2164,0,U,43931,999,39022,-.10249E-4,-.9E-7,0
IRIDIUM 181,2023-068S,2026-06-26T02:51:45.692640,14.43310602,.0002409,86.4492,53.0565,87.8311,272.3166,0,U,56726,999,16372,.7107E-4,.259E-5,0
IRIDIUM 177,2023-068T,2026-06-25T21:47:29.980896,14.80225983,.0002313,86.1972,324.6490,89.1000,271.0486,0,U,56727,999,16765,.67761E-4,.542E-5,0
IRIDIUM 174,2023-068U,2026-06-26T04:37:09.103872,14.72233415,.000242,86.6100,349.9248,80.5390,279.6101,0,U,56728,999,16734,.11986E-3,.78E-5,0
IRIDIUM 178,2023-068V,2026-06-25T11:47:42.753984,14.80247119,.0002557,86.6533,21.8888,84.2279,275.9234,0,U,56729,999,16759,.1235E-3,.965E-5,0
IRIDIUM 179,2023-068W,2026-06-26T02:16:06.979872,14.80228420,.0002392,86.6770,30.6433,89.1630,270.9866,0,U,56730,999,16768,.48719E-4,.396E-5,0
